[{"OBJECT_NAME":"OBJECT D","OBJECT_ID":"2024-203D","EPOCH":"2026-03-09T23:01:14.628576","MEAN_MOTION":15.25394324,"ECCENTRICITY":0.00105281,"INCLINATION":97.4343,"RA_OF_ASC_NODE":139.6527,"ARG_OF_PERICENTER":340.1906,"MEAN_ANOMALY":19.8921,"EPHEMERIS_TYPE":0,"CLASSIFICATION_TYPE":"U","NORAD_CAT_ID":61872,"ELEMENT_SET_NO":999,"REV_AT_EPOCH":7378,"BSTAR":0.00059366578,"MEAN_MOTION_DOT":0.00014956,"MEAN_MOTION_DDOT":0},{"OBJECT_NAME":"STARLINK-35460","OBJECT_ID":"2025-253K","EPOCH":"2026-03-09T10:38:29.169888","MEAN_MOTION":15.27567867,"ECCENTRICITY":0.00014441,"INCLINATION":43.0041,"RA_OF_ASC_NODE":214.1724,"ARG_OF_PERICENTER":270.1905,"MEAN_ANOMALY":89.8781,"EPHEMERIS_TYPE":0,"CLASSIFICATION_TYPE":"U","NORAD_CAT_ID":66328,"ELEMENT_SET_NO":999,"REV_AT_EPOCH":2020,"BSTAR":0.00037033081,"MEAN_MOTION_DOT":9.939e-5,"MEAN_MOTION_DDOT":0}]
